OBJECT_NAME,OBJECT_ID,EPOCH,MEAN_MOTION,ECCENTRICITY,INCLINATION,RA_OF_ASC_NODE,ARG_OF_PERICENTER,MEAN_ANOMALY,EPHEMERIS_TYPE,CLASSIFICATION_TYPE,NORAD_CAT_ID,ELEMENT_SET_NO,REV_AT_EPOCH,BSTAR,MEAN_MOTION_DOT,MEAN_MOTION_DDOT
SUOMI NPP,2011-061A,2026-07-21T05:51:44.629920,14.19523533,.00010581,98.7956,142.8890,186.9095,173.2067,0,U,37849,999,76327,.46138165E-4,.53E-6,0
YAOGAN-12,2011-066B,2026-07-21T06:44:18.013056,15.26923715,.00111242,97.1128,239.2498,104.0677,256.1800,0,U,37875,999,81724,.11844604E-3,.3067E-4,0
BEIDOU-2 M4,2012-018B,2026-07-19T21:00:44.744832,1.86229306,.00122384,55.6273,302.9841,272.0265,87.8661,0,U,38251,999,9655,0,-.99E-6,0
ARIRANG-3 (KOMPSAT-3),2012-025B,2026-07-21T07:35:09.902976,14.62232557,.00058359,98.1189,159.1915,21.9678,338.1772,0,U,38338,999,75633,.69169661E-4,.302E-5,0
HORYU-2,2012-025D,2026-07-21T03:01:28.726752,14.91248397,.00091716,98.2215,336.4622,75.3933,284.8300,0,U,38340,999,75378,.22899883E-3,.2218E-4,0
CSSWE,2012-048D,2026-07-20T17:59:32.382240,15.46167037,.00400911,64.6635,339.6526,163.5112,196.7341,0,U,38761,999,12158,.44951108E-3,.22681E-3,0
CP5,2012-048F,2026-07-21T03:57:09.695520,15.28386265,.00729199,64.6453,40.2407,164.9812,195.3508,0,U,38763,999,12195,.35146576E-3,.10345E-3,0
METOP-B,2012-049A,2026-07-21T06:12:38.297376,14.21447560,.0001324,98.6485,253.0749,223.4327,136.6746,0,U,38771,999,71810,.42767279E-4,.5E-6,0
SJ-9A,2012-056A,2026-07-21T05:56:59.475840,14.85536825,.00264675,97.6734,172.9734,142.4230,217.8842,0,U,38860,999,70464,.91958013E-4,.747E-5,0
COSMOS 2484 (RODNIK-S 6),2013-001C,2026-07-21T06:36:26.076384,12.42940080,.00254192,82.5004,200.6990,322.0773,37.8515,0,U,39059,999,61279,-.6390965E-3,-.79E-6,0
SARAL,2013-009A,2026-07-21T06:10:41.203776,14.32896767,.00020553,98.5560,28.3941,152.9473,207.1818,0,U,39086,999,70048,.31816032E-4,.43E-6,0
AAUSAT 3,2013-009B,2026-07-21T02:09:51.580512,14.39976494,.00126393,98.3714,25.1146,108.5576,251.6987,0,U,39087,999,70205,.14665726E-3,.419E-5,0
STRAND-1,2013-009E,2026-07-21T05:45:43.330176,14.37181250,.00096771,98.3940,21.6393,124.9348,235.2749,0,U,39090,999,70195,.77108725E-4,.187E-5,0
BRITE-AUSTRIA,2013-009F,2026-07-21T01:24:40.119552,14.36554034,.00110636,98.4014,20.6592,134.4751,225.7342,0,U,39091,999,70191,.4979663E-4,.104E-5,0
UNIBRITE,2013-009G,2026-07-21T05:07:18.151392,14.36425230,.00100485,98.4053,20.9292,130.4303,229.7761,0,U,39092,999,70187,.51372891E-4,.108E-5,0
AIST-2 (RS43),2013-015D,2026-07-21T07:47:36.879360,15.26604641,.00167265,64.8684,145.6773,248.7209,111.2136,0,U,39133,999,72911,.16895114E-3,.4248E-4,0
GAOFEN-1,2013-018A,2026-07-21T06:51:28.406016,14.76521185,.00176262,97.9076,273.6579,152.1365,208.0792,0,U,39150,999,71327,.297034E-5,-.3E-6,0
NEE-01 PEGASO,2013-018B,2026-07-21T03:51:55.288512,14.93808665,.0013521,98.1266,347.4451,56.5132,303.7377,0,U,39151,999,71577,.18082742E-3,.1859E-4,0
TURKSAT-3USAT,2013-018C,2026-07-21T01:08:22.808544,14.96605936,.00113674,97.7927,292.7362,353.4634,6.6437,0,U,39152,999,71615,.16130547E-3,.178E-4,0
CUBEBUG-1 (CAPITAN BETO),2013-018D,2026-07-21T05:57:22.966272,14.97476668,.00118124,98.1693,3.7161,40.8400,319.3704,0,U,39153,999,71616,.17979138E-3,.2032E-4,0
PROBA-V,2013-021A,2026-07-21T04:58:18.291360,14.23604137,.00050224,98.3610,179.1385,45.8408,314.3184,0,U,39159,999,68595,.3572191E-4,.4E-6,0
ESTCUBE 1,2013-021C,2026-07-20T02:06:50.715936,14.81484751,.00066414,97.7275,254.1160,266.1864,93.8590,0,U,39161,999,70989,.10086264E-3,.74E-5,0
ARIRANG-5 (KOMPSAT-5),2013-042A,2026-07-21T03:38:40.189920,15.04498604,.00045112,97.6201,28.3750,40.2701,319.8858,0,U,39227,999,70896,.4604609E-4,.584E-5,0
GONETS-M 5,2013-048A,2026-07-21T05:53:37.144320,12.42893324,.0017528,82.4859,322.1501,137.1297,223.1153,0,U,39249,999,58311,.12256749E-2,.18E-5,0
GONETS-M 7,2013-048C,2026-07-21T06:55:17.969952,12.42915963,.00183356,82.4926,325.0633,138.2736,221.9746,0,U,39251,999,58307,.87024778E-3,.131E-5,0
FENGYUN 3C,2013-052A,2026-07-21T05:59:34.332288,14.15761665,.00134876,98.5005,174.5650,287.2083,72.7615,0,U,39260,999,66338,.55504711E-4,.68E-6,0
CASSIOPE,2013-055A,2026-07-21T05:51:38.518848,15.27618671,.02818266,80.9141,25.2657,307.3318,50.2532,0,U,39265,999,67286,.18427871E-3,.17208E-3,-.50396E-6
APRIZESAT 7,2013-066A,2026-07-21T02:21:40.146048,14.91628062,.00373413,97.7724,154.8353,98.5210,262.0243,0,U,39416,999,68628,.85650537E-4,.814E-5,0
ZACUBE-1 (TSHEPISOSAT),2013-066B,2026-07-20T20:47:42.553536,15.01347026,.00440791,97.7999,164.3670,137.0238,223.4444,0,U,39417,999,68578,.14536999E-3,.1847E-4,0
APRIZESAT 8,2013-066K,2026-07-20T20:07:56.849952,14.87701914,.00459813,97.8231,148.8410,173.2600,186.9245,0,U,39425,999,68467,.58582319E-4,.487E-5,0
