{"_default": { "26": {"norad_id": "39417", "name": "ZACUBE", "tle1": "1 39417U 13066B   26201.86646474  .00001847  00000-0  14537-3 0  9999", "tle2": "2 39417  97.7999 164.3670 0044079 137.0238 223.4444 15.01347026685787", "object_type": "PAYLOAD", "criticality_score": 9.0, "last_updated": "2026-07-21T16:42:32.471020+00:00", "maneuver_count": 0, "owner": "SAFR"}, "27": {"norad_id": "39161", "name": "ESTCUBE 1", "tle1": "1 39161U 13021C   26201.08808699  .00000740  00000-0  10086-3 0  9995", "tle2": "2 39161  97.7275 254.1160 0006641 266.1864  93.8590 14.81484751709898", "object_type": "PAYLOAD", "criticality_score": 9.0, "last_updated": "2026-07-21T16:42:32.471020+00:00", "maneuver_count": 0, "owner": "EST"}, "28": {"norad_id": "39153", "name": "CUBEBUG 1", "tle1": "1 39153U 13018D   26202.24818248  .00002032  00000-0  17979-3 0  9996", "tle2": "2 39153  98.1693   3.7161 0011812  40.8400 319.3704 14.97476668716162", "object_type": "PAYLOAD", "criticality_score": 9.0, "last_updated": "2026-07-21T16:42:32.471020+00:00", "maneuver_count": 0, "owner": "ARGN"}, "29": {"norad_id": "39091", "name": "BRITE-A TUGSAT-1", "tle1": "1 39091U 13009F   26202.05879768  .00000104  00000-0  49797-4 0  9992", "tle2": "2 39091  98.4014  20.6592 0011064 134.4751 225.7342 14.36554034701919", "object_type": "PAYLOAD", "criticality_score": 9.0, "last_updated": "2026-07-21T16:42:32.471020+00:00", "maneuver_count": 0, "owner": "ASRA"}, "30": {"norad_id": "39087", "name": "AAUSAT3", "tle1": "1 39087U 13009B   26202.09018033  .00000419  00000-0  14666-3 0  9996", "tle2": "2 39087  98.3714  25.1146 0012639 108.5576 251.6987 14.39976494702051", "object_type": "PAYLOAD", "criticality_score": 9.0, "last_updated": "2026-07-21T16:42:32.471020+00:00", "maneuver_count": 0, "owner": "DEN"}, "57": {"norad_id": "39260", "name": "FENGYUN 3C", "tle1": "1 39260U 13052A   26202.24970292  .00000068  00000-0  55505-4 0  9996", "tle2": "2 39260  98.5005 174.5650 0013488 287.2083  72.7615 14.15761665663387", "object_type": "PAYLOAD", "criticality_score": 9.0, "last_updated": "2026-07-21T16:42:32.471020+00:00", "maneuver_count": 0, "owner": "PRC"}, "58": {"norad_id": "39090", "name": "STRAND 1", "tle1": "1 39090U 13009E   26202.24008484  .00000187  00000-0  77109-4 0  9990", "tle2": "2 39090  98.3940  21.6393 0009677 124.9348 235.2749 14.37181250701956", "object_type": "PAYLOAD", "criticality_score": 9.0, "last_updated": "2026-07-21T16:42:32.471020+00:00", "maneuver_count": 0, "owner": "UK"}, "60": {"norad_id": "38340", "name": "HORYU 2", "tle1": "1 38340U 12025D   26202.12602693  .00002218  00000-0  22900-3 0  9998", "tle2": "2 38340  98.2215 336.4622 0009172  75.3933 284.8300 14.91248397753785", "object_type": "PAYLOAD", "criticality_score": 9.0, "last_updated": "2026-07-21T16:42:32.471020+00:00", "maneuver_count": 0, "owner": "JPN"}, "117": {"norad_id": "39265", "name": "CASSIOPE", "tle1": "1 39265U 13055A   26202.24419582  .00017208 -50396-6  18428-3 0  9990", "tle2": "2 39265  80.9141  25.2657 0281827 307.3318  50.2532 15.27618671672860", "object_type": "PAYLOAD", "criticality_score": 9.0, "last_updated": "2026-07-21T16:42:32.471020+00:00", "maneuver_count": 0, "owner": "CA"}, "118": {"norad_id": "39151", "name": "NEE 01 PEGASUS", "tle1": "1 39151U 13018B   26202.16105658  .00001859  00000-0  18083-3 0  9992", "tle2": "2 39151  98.1266 347.4451 0013521  56.5132 303.7377 14.93808665715772", "object_type": "PAYLOAD", "criticality_score": 9.0, "last_updated": "2026-07-21T16:42:32.471020+00:00", "maneuver_count": 0, "owner": "ECU"}, "119": {"norad_id": "39092", "name": "BRITE-U UNIBRITE", "tle1": "1 39092U 13009G   26202.21340453  .00000108  00000-0  51373-4 0  9992", "tle2": "2 39092  98.4053  20.9292 0010049 130.4303 229.7761 14.36425230701873", "object_type": "PAYLOAD", "criticality_score": 9.0, "last_updated": "2026-07-21T16:42:32.471020+00:00", "maneuver_count": 0, "owner": "ASRA"}, "120": {"norad_id": "39086", "name": "SARAL", "tle1": "1 39086U 13009A   26202.25742134  .00000043  00000-0  31816-4 0  9999", "tle2": "2 39086  98.5560  28.3941 0002055 152.9473 207.1818 14.32896767700480", "object_type": "PAYLOAD", "criticality_score": 9.0, "last_updated": "2026-07-21T16:42:32.471020+00:00", "maneuver_count": 0, "owner": "IND"}, "121": {"norad_id": "38771", "name": "METOP-B", "tle1": "1 38771U 12049A   26202.25877659  .00000050  00000-0  42767-4 0  9998", "tle2": "2 38771  98.6485 253.0749 0001324 223.4327 136.6746 14.21447560718105", "object_type": "PAYLOAD", "criticality_score": 9.0, "last_updated": "2026-07-21T16:42:32.471020+00:00", "maneuver_count": 0, "owner": "EUME"}, "198": {"norad_id": "38761", "name": "CSSWE", "tle1": "1 38761U 12048D   26201.74968035  .00022681  00000-0  44951-3 0  9998", "tle2": "2 38761  64.6635 339.6526 0040091 163.5112 196.7341 15.46167037121582", "object_type": "PAYLOAD", "criticality_score": 9.0, "last_updated": "2026-07-21T16:42:32.471020+00:00", "maneuver_count": 0, "owner": "US"}, "201": {"norad_id": "38763", "name": "CP5", "tle1": "1 38763U 12048F   26202.16469555  .00010345  00000-0  35147-3 0  9991", "tle2": "2 38763  64.6453  40.2407 0072920 164.9812 195.3508 15.28386265121950", "object_type": "PAYLOAD", "criticality_score": 9.0, "last_updated": "2026-07-21T16:42:32.471020+00:00", "maneuver_count": 0, "owner": "US"}, "210": {"norad_id": "39152", "name": "TURKSAT 3U", "tle1": "1 39152U 13018C   26202.04748621  .00001780  00000-0  16131-3 0  9998", "tle2": "2 39152  97.7927 292.7362 0011367 353.4634   6.6437 14.96605936716155", "object_type": "PAYLOAD", "criticality_score": 9.0, "last_updated": "2026-07-21T16:42:32.471020+00:00", "maneuver_count": 0, "owner": "TURK"}, "258": {"norad_id": "39159", "name": "PROBA V", "tle1": "1 39159U 13021A   26202.20715615  .00000040  00000-0  35722-4 0  9990", "tle2": "2 39159  98.3610 179.1385 0005022  45.8408 314.3184 14.23604137685956", "object_type": "PAYLOAD", "criticality_score": 9.0, "last_updated": "2026-07-21T16:42:32.471020+00:00", "maneuver_count": 0, "owner": "ESA"}, "266": {"norad_id": "39133", "name": "AIST 2", "tle1": "1 39133U 13015D   26202.32473240  .00004248  00000-0  16895-3 0  9996", "tle2": "2 39133  64.8684 145.6773 0016726 248.7209 111.2136 15.26604641729114", "object_type": "PAYLOAD", "criticality_score": 9.0, "last_updated": "2026-07-21T16:42:32.471020+00:00", "maneuver_count": 0, "owner": "CIS"}, "373": {"norad_id": "39416", "name": "APRIZESAT 7", "tle1": "1 39416U 13066A   26202.09838132  .00000814  00000-0  85651-4 0  9997", "tle2": "2 39416  97.7724 154.8353 0037341  98.5210 262.0243 14.91628062686281", "object_type": "PAYLOAD", "criticality_score": 9.0, "last_updated": "2026-07-21T16:42:32.471020+00:00", "maneuver_count": 0, "owner": "US"}, "374": {"norad_id": "39425", "name": "APRIZESAT 8", "tle1": "1 39425U 13066K   26201.83885243  .00000487  00000-0  58582-4 0  9992", "tle2": "2 39425  97.8231 148.8410 0045981 173.2600 186.9245 14.87701914684675", "object_type": "PAYLOAD", "criticality_score": 9.0, "last_updated": "2026-07-21T16:42:32.471020+00:00", "maneuver_count": 0, "owner": "US"}, "434": {"norad_id": "38860", "name": "SJ-9A", "tle1": "1 38860U 12056A   26202.24791060  .00000747  00000-0  91958-4 0  9994", "tle2": "2 38860  97.6734 172.9734 0026467 142.4230 217.8842 14.85536825704647", "object_type": "PAYLOAD", "criticality_score": 9.0, "last_updated": "2026-07-21T16:42:32.471020+00:00", "maneuver_count": 0, "owner": "PRC"}, "471": {"norad_id": "37849", "name": "NPP", "tle1": "1 37849U 11061A   26202.24426655  .00000053  00000-0  46138-4 0  9990", "tle2": "2 37849  98.7956 142.8890 0001058 186.9095 173.2067 14.19523533763278", "object_type": "PAYLOAD", "criticality_score": 9.0, "last_updated": "2026-07-21T16:42:32.471020+00:00", "maneuver_count": 0, "owner": "US"}, "531": {"norad_id": "37875", "name": "YAOGAN 12", "tle1": "1 37875U 11066B   26202.28076404  .00003067  00000-0  11845-3 0  9995", "tle2": "2 37875  97.1128 239.2498 0011124 104.0677 256.1800 15.26923715817246", "object_type": "PAYLOAD", "criticality_score": 9.0, "last_updated": "2026-07-21T16:42:32.471020+00:00", "maneuver_count": 0, "owner": "PRC"}, "537": {"norad_id": "39227", "name": "KOMPSAT 5", "tle1": "1 39227U 13042A   26202.15185405  .00000584  00000-0  46046-4 0  9995", "tle2": "2 39227  97.6201  28.3750 0004511  40.2701 319.8858 15.04498604708963", "object_type": "PAYLOAD", "criticality_score": 9.0, "last_updated": "2026-07-21T16:42:32.471020+00:00", "maneuver_count": 0, "owner": "SKOR"}, "592": {"norad_id": "39059", "name": "COSMOS 2484", "tle1": "1 39059U 13001C   26202.27530181 -.00000079  00000-0 -63910-3 0  9990", "tle2": "2 39059  82.5004 200.6990 0025419 322.0773  37.8515 12.42940080612792", "object_type": "PAYLOAD", "criticality_score": 9.0, "last_updated": "2026-07-21T16:42:32.471020+00:00", "maneuver_count": 0, "owner": "CIS"}, "593": {"norad_id": "39249", "name": "GONETS M 05", "tle1": "1 39249U 13048A   26202.24556880  .00000180  00000-0  12257-2 0  9991", "tle2": "2 39249  82.4859 322.1501 0017528 137.1297 223.1153 12.42893324583115", "object_type": "PAYLOAD", "criticality_score": 9.0, "last_updated": "2026-07-21T16:42:32.471020+00:00", "maneuver_count": 0, "owner": "CIS"}, "594": {"norad_id": "39251", "name": "GONETS M 07", "tle1": "1 39251U 13048C   26202.28840243  .00000131  00000-0  87025-3 0  9999", "tle2": "2 39251  82.4926 325.0633 0018336 138.2736 221.9746 12.42915963583072", "object_type": "PAYLOAD", "criticality_score": 9.0, "last_updated": "2026-07-21T16:42:32.471020+00:00", "maneuver_count": 0, "owner": "CIS"}, "639": {"norad_id": "39150", "name": "GAOFEN 1", "tle1": "1 39150U 13018A   26202.28574544 -.00000030  00000-0  29703-5 0  9992", "tle2": "2 39150  97.9076 273.6579 0017626 152.1365 208.0792 14.76521185713270", "object_type": "PAYLOAD", "criticality_score": 9.0, "last_updated": "2026-07-21T16:42:32.471020+00:00", "maneuver_count": 0, "owner": "PRC"}, "645": {"norad_id": "38338", "name": "KOMPSAT 3", "tle1": "1 38338U 12025B   26202.31608684  .00000302  00000-0  69170-4 0  9995", "tle2": "2 38338  98.1189 159.1915 0005836  21.9678 338.1772 14.62232557756331", "object_type": "PAYLOAD", "criticality_score": 9.0, "last_updated": "2026-07-21T16:42:32.471020+00:00", "maneuver_count": 0, "owner": "SKOR"}, "658": {"norad_id": "38251", "name": "BEIDOU 13", "tle1": "1 38251U 12018B   26200.87551788 -.00000099  00000-0  00000-0 0  9999", "tle2": "2 38251  55.6273 302.9841 0012238 272.0265  87.8661  1.86229306 96554", "object_type": "PAYLOAD", "criticality_score": 9.0, "last_updated": "2026-07-21T16:42:32.471020+00:00", "maneuver_count": 0, "owner": "PRC"}}}